[{"OBJECT_NAME":"SDA_1671","OBJECT_ID":"2025-230H","EPOCH":"2026-03-09T17:44:20.295456","MEAN_MOTION":13.85388686,"ECCENTRICITY":0.00046746,"INCLINATION":81.3008,"RA_OF_ASC_NODE":303.8297,"ARG_OF_PERICENTER":111.686,"MEAN_ANOMALY":248.4795,"EPHEMERIS_TYPE":0,"CLASSIFICATION_TYPE":"U","NORAD_CAT_ID":65981,"ELEMENT_SET_NO":999,"REV_AT_EPOCH":2005,"BSTAR":0.00023629654,"MEAN_MOTION_DOT":2.81e-6,"MEAN_MOTION_DDOT":0},{"OBJECT_NAME":"SCOUT X-4 R\/B","OBJECT_ID":"1964-064B","EPOCH":"2026-03-09T22:36:42.960960","MEAN_MOTION":13.80919565,"ECCENTRICITY":0.01204564,"INCLINATION":79.6886,"RA_OF_ASC_NODE":277.5907,"ARG_OF_PERICENTER":195.965,"MEAN_ANOMALY":163.7691,"EPHEMERIS_TYPE":0,"CLASSIFICATION_TYPE":"U","NORAD_CAT_ID":907,"ELEMENT_SET_NO":999,"REV_AT_EPOCH":8894,"BSTAR":0.00020179213,"MEAN_MOTION_DOT":2.31e-6,"MEAN_MOTION_DDOT":0}]
